STARLINK-35305          
1 66561U 25268E   25335.25002315 -.01587038  00000+0 -87404-2 0  9991
2 66561  42.9966 189.5424 0001622 271.1489 306.3062 15.81693844  2773
STARLINK-35579          
1 66562U 25268F   25335.25002315 -.01580100  00000+0 -86980-2 0  9993
2 66562  42.9967 189.5474 0001682 267.1049 308.3477 15.81689662  2824
STARLINK-35437          
1 66563U 25268G   25335.25002315 -.01598398  00000+0 -88164-2 0  9998
2 66563  42.9963 189.5366 0001624 266.3048 313.2914 15.81683709  2824
STARLINK-35358          
1 66564U 25268H   25335.25002315 -.01603091  00000+0 -88442-2 0  9995
2 66564  42.9963 189.5319 0001644 271.7285 309.8453 15.81687902  2770
STARLINK-35893          
1 66565U 25268J   25335.25002315 -.01603448  00000+0 -88466-2 0  9998
2 66565  42.9965 189.5267 0001748 265.7045 317.8840 15.81686209  2821
STARLINK-35871          
1 66566U 25268K   25335.25002315 -.01615150  00000+0 -89341-2 0  9995
2 66566  42.9966 189.5209 0001692 265.1958 320.7051 15.81655477  2824
STARLINK-35825          
1 66567U 25268L   25335.25002315 -.01625616  00000+0 -90075-2 0  9990
2 66567  42.9967 189.5156 0001703 264.0970 323.9884 15.81639500  2820
STARLINK-35803          
1 66568U 25268M   25335.25002315 -.01637297  00000+0 -90937-2 0  9996
2 66568  42.9966 189.5099 0001649 269.9096 320.4368 15.81613301  2828
STARLINK-35835          
1 66569U 25268N   25335.25002315 -.01645109  00000+0 -91449-2 0  9997
2 66569  42.9967 189.5046 0001648 268.7649 323.6270 15.81610692  2829
STARLINK-35834          
1 66570U 25268P   25335.25002315 -.01652645  00000+0 -92057-2 0  9998
2 66570  42.9968 189.4991 0001694 271.2620 323.3873 15.81581554  2829
STARLINK-35836          
1 66571U 25268Q   25335.25002315 -.01668061  00000+0 -93160-2 0  9994
2 66571  42.9966 189.4934 0001731 265.0345 331.8707 15.81556178  2826
STARLINK-35870          
1 66572U 25268R   25335.25002315 -.01674140  00000+0 -93707-2 0  9997
2 66572  42.9971 189.4880 0001773 268.2719 330.9263 15.81520782  2828
