CCSDS_OMM_VERS = 2.0
CREATION_DATE  = 
ORIGINATOR     = 

OBJECT_NAME    = STARLINK-35305
OBJECT_ID      = 2025-268E
CENTER_NAME    = EARTH
REF_FRAME      = TEME
TIME_SYSTEM    = UTC
MEAN_ELEMENT_THEORY = SGP/SGP4

EPOCH          = 2025-12-01T06:00:02.000160
MEAN_MOTION    = 15.81693844
ECCENTRICITY   = .00016227
INCLINATION    = 42.9966
RA_OF_ASC_NODE = 189.5424
ARG_OF_PERICENTER = 271.1489
MEAN_ANOMALY   = 306.3062

EPHEMERIS_TYPE = 0
CLASSIFICATION_TYPE = U
NORAD_CAT_ID   = 66561
ELEMENT_SET_NO = 999
REV_AT_EPOCH   = 277
BSTAR          = -.87403696E-2
MEAN_MOTION_DOT = -.1587038E-1
MEAN_MOTION_DDOT = 0

CCSDS_OMM_VERS = 2.0
CREATION_DATE  = 
ORIGINATOR     = 

OBJECT_NAME    = STARLINK-35579
OBJECT_ID      = 2025-268F
CENTER_NAME    = EARTH
REF_FRAME      = TEME
TIME_SYSTEM    = UTC
MEAN_ELEMENT_THEORY = SGP/SGP4

EPOCH          = 2025-12-01T06:00:02.000160
MEAN_MOTION    = 15.81689662
ECCENTRICITY   = .0001682
INCLINATION    = 42.9967
RA_OF_ASC_NODE = 189.5474
ARG_OF_PERICENTER = 267.1049
MEAN_ANOMALY   = 308.3477

EPHEMERIS_TYPE = 0
CLASSIFICATION_TYPE = U
NORAD_CAT_ID   = 66562
ELEMENT_SET_NO = 999
REV_AT_EPOCH   = 282
BSTAR          = -.86980192E-2
MEAN_MOTION_DOT = -.15801E-1
MEAN_MOTION_DDOT = 0

CCSDS_OMM_VERS = 2.0
CREATION_DATE  = 
ORIGINATOR     = 

OBJECT_NAME    = STARLINK-35437
OBJECT_ID      = 2025-268G
CENTER_NAME    = EARTH
REF_FRAME      = TEME
TIME_SYSTEM    = UTC
MEAN_ELEMENT_THEORY = SGP/SGP4

EPOCH          = 2025-12-01T06:00:02.000160
MEAN_MOTION    = 15.81683709
ECCENTRICITY   = .0001624
INCLINATION    = 42.9963
RA_OF_ASC_NODE = 189.5366
ARG_OF_PERICENTER = 266.3048
MEAN_ANOMALY   = 313.2914

EPHEMERIS_TYPE = 0
CLASSIFICATION_TYPE = U
NORAD_CAT_ID   = 66563
ELEMENT_SET_NO = 999
REV_AT_EPOCH   = 282
BSTAR          = -.88163706E-2
MEAN_MOTION_DOT = -.1598398E-1
MEAN_MOTION_DDOT = 0

CCSDS_OMM_VERS = 2.0
CREATION_DATE  = 
ORIGINATOR     = 

OBJECT_NAME    = STARLINK-35358
OBJECT_ID      = 2025-268H
CENTER_NAME    = EARTH
REF_FRAME      = TEME
TIME_SYSTEM    = UTC
MEAN_ELEMENT_THEORY = SGP/SGP4

EPOCH          = 2025-12-01T06:00:02.000160
MEAN_MOTION    = 15.81687902
ECCENTRICITY   = .00016443
INCLINATION    = 42.9963
RA_OF_ASC_NODE = 189.5319
ARG_OF_PERICENTER = 271.7285
MEAN_ANOMALY   = 309.8453

EPHEMERIS_TYPE = 0
CLASSIFICATION_TYPE = U
NORAD_CAT_ID   = 66564
ELEMENT_SET_NO = 999
REV_AT_EPOCH   = 277
BSTAR          = -.8844239E-2
MEAN_MOTION_DOT = -.1603091E-1
MEAN_MOTION_DDOT = 0

CCSDS_OMM_VERS = 2.0
CREATION_DATE  = 
ORIGINATOR     = 

OBJECT_NAME    = STARLINK-35893
OBJECT_ID      = 2025-268J
CENTER_NAME    = EARTH
REF_FRAME      = TEME
TIME_SYSTEM    = UTC
MEAN_ELEMENT_THEORY = SGP/SGP4

EPOCH          = 2025-12-01T06:00:02.000160
MEAN_MOTION    = 15.81686209
ECCENTRICITY   = .00017483
INCLINATION    = 42.9965
RA_OF_ASC_NODE = 189.5267
ARG_OF_PERICENTER = 265.7045
MEAN_ANOMALY   = 317.8840

EPHEMERIS_TYPE = 0
CLASSIFICATION_TYPE = U
NORAD_CAT_ID   = 66565
ELEMENT_SET_NO = 999
REV_AT_EPOCH   = 282
BSTAR          = -.88466471E-2
MEAN_MOTION_DOT = -.1603448E-1
MEAN_MOTION_DDOT = 0

CCSDS_OMM_VERS = 2.0
CREATION_DATE  = 
ORIGINATOR     = 

OBJECT_NAME    = STARLINK-35871
OBJECT_ID      = 2025-268K
CENTER_NAME    = EARTH
REF_FRAME      = TEME
TIME_SYSTEM    = UTC
MEAN_ELEMENT_THEORY = SGP/SGP4

EPOCH          = 2025-12-01T06:00:02.000160
MEAN_MOTION    = 15.81655477
ECCENTRICITY   = .00016927
INCLINATION    = 42.9966
RA_OF_ASC_NODE = 189.5209
ARG_OF_PERICENTER = 265.1958
MEAN_ANOMALY   = 320.7051

EPHEMERIS_TYPE = 0
CLASSIFICATION_TYPE = U
NORAD_CAT_ID   = 66566
ELEMENT_SET_NO = 999
REV_AT_EPOCH   = 282
BSTAR          = -.89341404E-2
MEAN_MOTION_DOT = -.161515E-1
MEAN_MOTION_DDOT = 0

CCSDS_OMM_VERS = 2.0
CREATION_DATE  = 
ORIGINATOR     = 

OBJECT_NAME    = STARLINK-35825
OBJECT_ID      = 2025-268L
CENTER_NAME    = EARTH
REF_FRAME      = TEME
TIME_SYSTEM    = UTC
MEAN_ELEMENT_THEORY = SGP/SGP4

EPOCH          = 2025-12-01T06:00:02.000160
MEAN_MOTION    = 15.81639500
ECCENTRICITY   = .00017031
INCLINATION    = 42.9967
RA_OF_ASC_NODE = 189.5156
ARG_OF_PERICENTER = 264.0970
MEAN_ANOMALY   = 323.9884

EPHEMERIS_TYPE = 0
CLASSIFICATION_TYPE = U
NORAD_CAT_ID   = 66567
ELEMENT_SET_NO = 999
REV_AT_EPOCH   = 282
BSTAR          = -.90075226E-2
MEAN_MOTION_DOT = -.1625616E-1
MEAN_MOTION_DDOT = 0

CCSDS_OMM_VERS = 2.0
CREATION_DATE  = 
ORIGINATOR     = 

OBJECT_NAME    = STARLINK-35803
OBJECT_ID      = 2025-268M
CENTER_NAME    = EARTH
REF_FRAME      = TEME
TIME_SYSTEM    = UTC
MEAN_ELEMENT_THEORY = SGP/SGP4

EPOCH          = 2025-12-01T06:00:02.000160
MEAN_MOTION    = 15.81613301
ECCENTRICITY   = .00016493
INCLINATION    = 42.9966
RA_OF_ASC_NODE = 189.5099
ARG_OF_PERICENTER = 269.9096
MEAN_ANOMALY   = 320.4368

EPHEMERIS_TYPE = 0
CLASSIFICATION_TYPE = U
NORAD_CAT_ID   = 66568
ELEMENT_SET_NO = 999
REV_AT_EPOCH   = 282
BSTAR          = -.90936836E-2
MEAN_MOTION_DOT = -.1637297E-1
MEAN_MOTION_DDOT = 0

CCSDS_OMM_VERS = 2.0
CREATION_DATE  = 
ORIGINATOR     = 

OBJECT_NAME    = STARLINK-35835
OBJECT_ID      = 2025-268N
CENTER_NAME    = EARTH
REF_FRAME      = TEME
TIME_SYSTEM    = UTC
MEAN_ELEMENT_THEORY = SGP/SGP4

EPOCH          = 2025-12-01T06:00:02.000160
MEAN_MOTION    = 15.81610692
ECCENTRICITY   = .00016488
INCLINATION    = 42.9967
RA_OF_ASC_NODE = 189.5046
ARG_OF_PERICENTER = 268.7649
MEAN_ANOMALY   = 323.6270

EPHEMERIS_TYPE = 0
CLASSIFICATION_TYPE = U
NORAD_CAT_ID   = 66569
ELEMENT_SET_NO = 999
REV_AT_EPOCH   = 282
BSTAR          = -.91448923E-2
MEAN_MOTION_DOT = -.1645109E-1
MEAN_MOTION_DDOT = 0

CCSDS_OMM_VERS = 2.0
CREATION_DATE  = 
ORIGINATOR     = 

OBJECT_NAME    = STARLINK-35834
OBJECT_ID      = 2025-268P
CENTER_NAME    = EARTH
REF_FRAME      = TEME
TIME_SYSTEM    = UTC
MEAN_ELEMENT_THEORY = SGP/SGP4

EPOCH          = 2025-12-01T06:00:02.000160
MEAN_MOTION    = 15.81581554
ECCENTRICITY   = .00016942
INCLINATION    = 42.9968
RA_OF_ASC_NODE = 189.4991
ARG_OF_PERICENTER = 271.2620
MEAN_ANOMALY   = 323.3873

EPHEMERIS_TYPE = 0
CLASSIFICATION_TYPE = U
NORAD_CAT_ID   = 66570
ELEMENT_SET_NO = 999
REV_AT_EPOCH   = 282
BSTAR          = -.92056742E-2
MEAN_MOTION_DOT = -.1652645E-1
MEAN_MOTION_DDOT = 0

CCSDS_OMM_VERS = 2.0
CREATION_DATE  = 
ORIGINATOR     = 

OBJECT_NAME    = STARLINK-35836
OBJECT_ID      = 2025-268Q
CENTER_NAME    = EARTH
REF_FRAME      = TEME
TIME_SYSTEM    = UTC
MEAN_ELEMENT_THEORY = SGP/SGP4

EPOCH          = 2025-12-01T06:00:02.000160
MEAN_MOTION    = 15.81556178
ECCENTRICITY   = .00017311
INCLINATION    = 42.9966
RA_OF_ASC_NODE = 189.4934
ARG_OF_PERICENTER = 265.0345
MEAN_ANOMALY   = 331.8707

EPHEMERIS_TYPE = 0
CLASSIFICATION_TYPE = U
NORAD_CAT_ID   = 66571
ELEMENT_SET_NO = 999
REV_AT_EPOCH   = 282
BSTAR          = -.93159767E-2
MEAN_MOTION_DOT = -.1668061E-1
MEAN_MOTION_DDOT = 0

CCSDS_OMM_VERS = 2.0
CREATION_DATE  = 
ORIGINATOR     = 

OBJECT_NAME    = STARLINK-35870
OBJECT_ID      = 2025-268R
CENTER_NAME    = EARTH
REF_FRAME      = TEME
TIME_SYSTEM    = UTC
MEAN_ELEMENT_THEORY = SGP/SGP4

EPOCH          = 2025-12-01T06:00:02.000160
MEAN_MOTION    = 15.81520782
ECCENTRICITY   = .00017735
INCLINATION    = 42.9971
RA_OF_ASC_NODE = 189.4880
ARG_OF_PERICENTER = 268.2719
MEAN_ANOMALY   = 330.9263

EPHEMERIS_TYPE = 0
CLASSIFICATION_TYPE = U
NORAD_CAT_ID   = 66572
ELEMENT_SET_NO = 999
REV_AT_EPOCH   = 282
BSTAR          = -.93706915E-2
MEAN_MOTION_DOT = -.167414E-1
MEAN_MOTION_DDOT = 0

